1998-067XK              
1 65731U 98067XK  26027.01965262  .00220266  00000+0  12168-2 0  9997
2 65731  51.6246 265.6269 0004118 159.2961 200.8207 15.78430092 20269
RSP-03                  
1 65732U 98067XL  26026.74933255  .00424302  00000+0  14672-2 0  9993
2 65732  51.6204 264.5262 0005453 175.8657 184.2394 15.87842702 20261
YOTSUBA-KULOVER         
1 65941U 98067XN  26026.78542595  .00124754  00000+0  11076-2 0  9995
2 65941  51.6263 272.3380 0004433 169.0329 191.0765 15.67633382 16908
BOTAN                   
1 65942U 98067XP  26026.68927312  .00263485  00000+0  15443-2 0  9996
2 65942  51.6210 270.1730 0005275 178.3633 181.7385 15.76971767 16920
E-KAGAKU-1              
1 65943U 98067XQ  26026.72183308  .00119845  00000+0  10682-2 0  9991
2 65943  51.6283 272.6721 0003158 176.1816 183.9205 15.67561224 16899
HRC MONOBLOCK CAMERA    
1 66052U 98067XR  26026.67664473  .00051816  00000+0  68320-3 0  9990
2 66052  51.6303 276.8674 0000528  41.0184 319.0848 15.57887597 15834
HTV-X1                  
1 66174U 25241A   26027.14328214  .00011252  00000+0  21756-3 0  9994
2 66174  51.6321 277.7306 0011149  34.3982 325.7726 15.48216781   512
SHENZHOU-22             
1 66645U 25272A   26027.22862482  .00029284  00000+0  33868-3 0  9991
2 66645  41.4668 100.1488 0009610  12.9721 347.1363 15.61162625267645
SOYUZ-MS 28             
1 66664U 25275A   26027.14328214  .00011252  00000+0  21756-3 0  9995
2 66664  51.6321 277.7306 0011149  34.3982 325.7726 15.48216781  1281
DUPLEX                  
1 66906U 98067XS  26026.93479522  .00032047  00000+0  50474-3 0  9992
2 66906  51.6306 277.8386 0001885  61.8176 298.3005 15.53274870  8638
1998-067XT              
1 66907U 98067XT  26026.71960572  .00106877  00000+0  13455-2 0  9999
2 66907  51.6281 277.9018 0003153 130.0463 230.0807 15.58799011  8617
